{"type":"FeatureCollection","features":[
{"type": "Feature", "properties": {"id": "main", "name": "Willamette Falls Railway: main route, Tualatin River end to Walling", "source": "surveys"}, "geometry": {"type": "LineString", "coordinates": [[-122.677853, 45.35066], [-122.677708, 45.350501], [-122.677534, 45.350375], [-122.676556, 45.349889], [-122.676165, 45.349656], [-122.673473, 45.347814], [-122.672426, 45.346986], [-122.672118, 45.346776], [-122.671682, 45.346544], [-122.671072, 45.346303], [-122.670781, 45.346168], [-122.668741, 45.34504], [-122.668165, 45.344764], [-122.66755, 45.344534], [-122.66562, 45.343935], [-122.664894, 45.343734], [-122.664155, 45.34356], [-122.663328, 45.3434], [-122.660364, 45.342906], [-122.659997, 45.342881], [-122.659611, 45.342913], [-122.659333, 45.342976], [-122.641819, 45.348053], [-122.641307, 45.348186], [-122.640592, 45.348322], [-122.6399, 45.348404], [-122.633373, 45.348838], [-122.632832, 45.348887], [-122.632276, 45.348956], [-122.631369, 45.349116], [-122.630466, 45.349333], [-122.629838, 45.349521], [-122.628579, 45.349933], [-122.628127, 45.350095], [-122.627386, 45.3504], [-122.626697, 45.350736], [-122.622277, 45.353188], [-122.617136, 45.356408], [-122.616713, 45.356709], [-122.615189, 45.357886], [-122.614839, 45.358126], [-122.614284, 45.358432], [-122.613123, 45.358949], [-122.61262, 45.359232], [-122.612325, 45.359432], [-122.610192, 45.361], [-122.610014, 45.361167], [-122.609864, 45.361346], [-122.609744, 45.361536], [-122.609655, 45.361735], [-122.609585, 45.362038], [-122.609589, 45.362356], [-122.609672, 45.362668], [-122.609824, 45.362955], [-122.610035, 45.36323], [-122.611645, 45.36514], [-122.612015, 45.365525], [-122.612438, 45.3659], [-122.61275, 45.366143], [-122.61308, 45.366375], [-122.613774, 45.366792], [-122.619402, 45.369615], [-122.619969, 45.369929], [-122.620492, 45.370259], [-122.621051, 45.370661], [-122.621579, 45.371102], [-122.624637, 45.373942], [-122.625072, 45.374381], [-122.625528, 45.374923], [-122.63537, 45.387808], [-122.6361, 45.388682], [-122.637758, 45.390479], [-122.640941, 45.39443], [-122.641343, 45.395019], [-122.642499, 45.396306], [-122.642795, 45.396751], [-122.643187, 45.397548], [-122.643547, 45.398189], [-122.643793, 45.398544], [-122.644368, 45.399275], [-122.644623, 45.399573], [-122.644919, 45.399851], [-122.645184, 45.400056], [-122.646, 45.400622], [-122.646204, 45.400791], [-122.646398, 45.400982], [-122.64656, 45.401174], [-122.646699, 45.401374], [-122.647375, 45.402521], [-122.647505, 45.402693], [-122.647645, 45.402843], [-122.647843, 45.403015], [-122.648065, 45.403169], [-122.648326, 45.403314], [-122.648922, 45.403596], [-122.649228, 45.403765], [-122.650541, 45.404646], [-122.65092, 45.404882], [-122.651344, 45.405089], [-122.652234, 45.405441], [-122.652651, 45.405661], [-122.652932, 45.40585], [-122.654724, 45.407156], [-122.654914, 45.407274], [-122.65521, 45.407405], [-122.656179, 45.407703], [-122.657605, 45.408231]]}}
]}
