{
 "type": "FeatureCollection",
 "features": [
  {
   "type": "Feature",
   "properties": {
    "id": "main",
    "name": "PRL&P Mount Hood line",
    "source": "Springwater Line track to Linnemann Junction; Cameron Booth (1920 map) beyond"
   },
   "geometry": {
    "type": "LineString",
    "coordinates": [
     [
      -122.6749263,
      45.5142741
     ],
     [
      -122.6752403,
      45.5143561
     ],
     [
      -122.6752758,
      45.5143653
     ],
     [
      -122.6753096,
      45.5143742
     ],
     [
      -122.6753408,
      45.5143823
     ],
     [
      -122.6753682,
      45.5143895
     ],
     [
      -122.6753896,
      45.5144544
     ],
     [
      -122.6753776,
      45.5144757
     ],
     [
      -122.6753642,
      45.5144995
     ],
     [
      -122.6753507,
      45.5145235
     ],
     [
      -122.6732475,
      45.5184104
     ],
     [
      -122.6728907,
      45.5190578
     ],
     [
      -122.6725956,
      45.5196086
     ],
     [
      -122.6725813,
      45.5196334
     ],
     [
      -122.672568,
      45.5196564
     ],
     [
      -122.6725558,
      45.5196776
     ],
     [
      -122.6725452,
      45.5196961
     ],
     [
      -122.672607,
      45.519759
     ],
     [
      -122.6726374,
      45.5197671
     ],
     [
      -122.6726717,
      45.5197763
     ],
     [
      -122.6727057,
      45.5197854
     ],
     [
      -122.6732962,
      45.5199435
     ],
     [
      -122.6733309,
      45.5199528
     ],
     [
      -122.6733651,
      45.5199619
     ],
     [
      -122.673396,
      45.5199702
     ],
     [
      -122.6734907,
      45.5199521
     ],
     [
      -122.6735016,
      45.5199329
     ],
     [
      -122.6735144,
      45.5199104
     ],
     [
      -122.6735279,
      45.5198867
     ],
     [
      -122.6735418,
      45.5198621
     ],
     [
      -122.6738329,
      45.5193161
     ],
     [
      -122.6742154,
      45.5186635
     ],
     [
      -122.6745482,
      45.5179969
     ],
     [
      -122.6762915,
      45.5147687
     ],
     [
      -122.676305,
      45.5147437
     ],
     [
      -122.6763182,
      45.5147194
     ],
     [
      -122.6763298,
      45.5146978
     ],
     [
      -122.6763401,
      45.5146788
     ],
     [
      -122.6762943,
      45.5146428
     ],
     [
      -122.676263,
      45.5146342
     ],
     [
      -122.6762284,
      45.5146247
     ],
     [
      -122.6761936,
      45.5146152
     ],
     [
      -122.6743435,
      45.5141219
     ],
     [
      -122.6740272,
      45.514035
     ],
     [
      -122.6740272,
      45.514035
     ],
     [
      -122.6735802,
      45.5139188
     ],
     [
      -122.6735802,
      45.5139188
     ],
     [
      -122.673284,
      45.513839
     ],
     [
      -122.673284,
      45.513839
     ],
     [
      -122.6713186,
      45.5133239
     ],
     [
      -122.6713186,
      45.5133239
     ],
     [
      -122.6680311,
      45.5124827
     ],
     [
      -122.6680311,
      45.5124827
     ],
     [
      -122.6678987,
      45.5124515
     ],
     [
      -122.6658434,
      45.5123711
     ],
     [
      -122.6658424,
      45.5123703
     ],
     [
      -122.6658423,
      45.5122904
     ],
     [
      -122.6658423,
      45.5122904
     ],
     [
      -122.6658443,
      45.5122299
     ],
     [
      -122.6658443,
      45.5122299
     ],
     [
      -122.6658531,
      45.511539
     ],
     [
      -122.6658531,
      45.511539
     ],
     [
      -122.6658745,
      45.5108652
     ],
     [
      -122.6658745,
      45.5108652
     ],
     [
      -122.6658772,
      45.5107871
     ],
     [
      -122.6658777,
      45.5105943
     ],
     [
      -122.6658777,
      45.5105943
     ],
     [
      -122.6658814,
      45.5093185
     ],
     [
      -122.6658619,
      45.5092322
     ],
     [
      -122.665817,
      45.5091157
     ],
     [
      -122.6657079,
      45.5089394
     ],
     [
      -122.665575,
      45.5087986
     ],
     [
      -122.665575,
      45.5087986
     ],
     [
      -122.6654423,
      45.5087032
     ],
     [
      -122.665315,
      45.5086424
     ],
     [
      -122.665198,
      45.5086041
     ],
     [
      -122.6650377,
      45.5085632
     ],
     [
      -122.6650377,
      45.5085632
     ],
     [
      -122.6649229,
      45.5085583
     ],
     [
      -122.6642388,
      45.5085482
     ],
     [
      -122.6640577,
      45.5085278
     ],
     [
      -122.6639363,
      45.5085011
     ],
     [
      -122.6638333,
      45.5084612
     ],
     [
      -122.6637282,
      45.5084046
     ],
     [
      -122.6636233,
      45.5083471
     ],
     [
      -122.6635171,
      45.5082832
     ],
     [
      -122.6635171,
      45.5082832
     ],
     [
      -122.6634612,
      45.5082496
     ],
     [
      -122.6633826,
      45.5081972
     ],
     [
      -122.6633193,
      45.5081445
     ],
     [
      -122.6632616,
      45.5081025
     ],
     [
      -122.6632019,
      45.5080576
     ],
     [
      -122.6632019,
      45.5080576
     ],
     [
      -122.6630778,
      45.5079695
     ],
     [
      -122.6629828,
      45.5078887
     ],
     [
      -122.6629035,
      45.5078184
     ],
     [
      -122.6628257,
      45.5077491
     ],
     [
      -122.6627572,
      45.5076967
     ],
     [
      -122.6627061,
      45.5076509
     ],
     [
      -122.6626445,
      45.5075862
     ],
     [
      -122.6625807,
      45.5075229
     ],
     [
      -122.6625447,
      45.5074766
     ],
     [
      -122.6624898,
      45.5074168
     ],
     [
      -122.6624307,
      45.507339
     ],
     [
      -122.6623581,
      45.5072442
     ],
     [
      -122.6623581,
      45.5072442
     ],
     [
      -122.6622906,
      45.5071477
     ],
     [
      -122.6622201,
      45.5070377
     ],
     [
      -122.6621492,
      45.5069205
     ],
     [
      -122.6621039,
      45.5068029
     ],
     [
      -122.6620685,
      45.5066779
     ],
     [
      -122.6620296,
      45.5065425
     ],
     [
      -122.6620285,
      45.5065375
     ],
     [
      -122.6620285,
      45.5065375
     ],
     [
      -122.6620025,
      45.5064206
     ],
     [
      -122.6619827,
      45.5063024
     ],
     [
      -122.6619691,
      45.5062129
     ],
     [
      -122.6619604,
      45.5061197
     ],
     [
      -122.6619511,
      45.5060086
     ],
     [
      -122.6619446,
      45.5058765
     ],
     [
      -122.6617732,
      45.5058095
     ],
     [
      -122.6617811,
      45.5046323
     ],
     [
      -122.6618572,
      45.5041246
     ],
     [
      -122.6618647,
      45.5040084
     ],
     [
      -122.661874,
      45.5038655
     ],
     [
      -122.6618683,
      45.5034692
     ],
     [
      -122.6618554,
      45.5032461
     ],
     [
      -122.6618287,
      45.50302
     ],
     [
      -122.6617945,
      45.5028799
     ],
     [
      -122.6617438,
      45.502682
     ],
     [
      -122.661718,
      45.5025862
     ],
     [
      -122.6615509,
      45.502161
     ],
     [
      -122.6614476,
      45.5019508
     ],
     [
      -122.6613938,
      45.5018329
     ],
     [
      -122.6611261,
      45.5013093
     ],
     [
      -122.6611088,
      45.5012642
     ],
     [
      -122.6610845,
      45.5012014
     ],
     [
      -122.6609831,
      45.5009224
     ],
     [
      -122.6608785,
      45.5006313
     ],
     [
      -122.6608056,
      45.5003745
     ],
     [
      -122.6606942,
      45.4999721
     ],
     [
      -122.6606295,
      45.4997161
     ],
     [
      -122.660552,
      45.4994276
     ],
     [
      -122.6605513,
      45.4994247
     ],
     [
      -122.6604779,
      45.4991592
     ],
     [
      -122.6604094,
      45.4989236
     ],
     [
      -122.660357,
      45.4987086
     ],
     [
      -122.6602898,
      45.4984647
     ],
     [
      -122.6602489,
      45.4983285
     ],
     [
      -122.660187,
      45.4981225
     ],
     [
      -122.6601174,
      45.4978449
     ],
     [
      -122.6600935,
      45.4977575
     ],
     [
      -122.6599689,
      45.497348
     ],
     [
      -122.659906,
      45.4970786
     ],
     [
      -122.6598708,
      45.4969259
     ],
     [
      -122.6598049,
      45.496658
     ],
     [
      -122.6597138,
      45.4963244
     ],
     [
      -122.6596684,
      45.4961624
     ],
     [
      -122.659664,
      45.4961465
     ],
     [
      -122.6595843,
      45.4958489
     ],
     [
      -122.6595052,
      45.495551
     ],
     [
      -122.659503,
      45.4955432
     ],
     [
      -122.659411,
      45.4952186
     ],
     [
      -122.6591121,
      45.4941298
     ],
     [
      -122.6590743,
      45.4939739
     ],
     [
      -122.6590482,
      45.4938801
     ],
     [
      -122.6589386,
      45.4935403
     ],
     [
      -122.6588243,
      45.49323
     ],
     [
      -122.6587192,
      45.4930154
     ],
     [
      -122.6586083,
      45.4927999
     ],
     [
      -122.6583748,
      45.4924303
     ],
     [
      -122.6581701,
      45.4921578
     ],
     [
      -122.6581097,
      45.4920797
     ],
     [
      -122.6581097,
      45.4920796
     ],
     [
      -122.6579877,
      45.4919218
     ],
     [
      -122.6578389,
      45.4917596
     ],
     [
      -122.6577125,
      45.4916285
     ],
     [
      -122.6575951,
      45.4915126
     ],
     [
      -122.6574953,
      45.4914159
     ],
     [
      -122.6573569,
      45.4912967
     ],
     [
      -122.6571558,
      45.4911286
     ],
     [
      -122.6570356,
      45.4910315
     ],
     [
      -122.6567194,
      45.4908078
     ],
     [
      -122.6565371,
      45.4906908
     ],
     [
      -122.6565234,
      45.4906821
     ],
     [
      -122.6563518,
      45.4905658
     ],
     [
      -122.6561608,
      45.4904557
     ],
     [
      -122.6558752,
      45.490303
     ],
     [
      -122.6555067,
      45.4901219
     ],
     [
      -122.6551687,
      45.489968
     ],
     [
      -122.6544091,
      45.489634
     ],
     [
      -122.654409,
      45.489634
     ],
     [
      -122.6544061,
      45.4896327
     ],
     [
      -122.654036,
      45.4894646
     ],
     [
      -122.6537999,
      45.4893433
     ],
     [
      -122.6536126,
      45.4892371
     ],
     [
      -122.6533471,
      45.4890789
     ],
     [
      -122.6532445,
      45.4890147
     ],
     [
      -122.6530027,
      45.4888414
     ],
     [
      -122.652847,
      45.4887094
     ],
     [
      -122.6527878,
      45.4886538
     ],
     [
      -122.6527375,
      45.4886068
     ],
     [
      -122.6525642,
      45.4884344
     ],
     [
      -122.6524357,
      45.488291
     ],
     [
      -122.6523074,
      45.4881593
     ],
     [
      -122.6521608,
      45.4879755
     ],
     [
      -122.65207,
      45.4878411
     ],
     [
      -122.6519418,
      45.4876163
     ],
     [
      -122.6518346,
      45.4874008
     ],
     [
      -122.6517424,
      45.4871743
     ],
     [
      -122.6516895,
      45.4870006
     ],
     [
      -122.6516389,
      45.4868203
     ],
     [
      -122.6516184,
      45.4867398
     ],
     [
      -122.6516183,
      45.4867398
     ],
     [
      -122.6516016,
      45.4866744
     ],
     [
      -122.6515725,
      45.4864038
     ],
     [
      -122.6515701,
      45.4861447
     ],
     [
      -122.6516236,
      45.4857222
     ],
     [
      -122.6516886,
      45.4854252
     ],
     [
      -122.6518005,
      45.4850945
     ],
     [
      -122.6519606,
      45.4847768
     ],
     [
      -122.6520686,
      45.4845988
     ],
     [
      -122.6524631,
      45.4840175
     ],
     [
      -122.6527034,
      45.4836685
     ],
     [
      -122.6529149,
      45.483383
     ],
     [
      -122.6529606,
      45.4833159
     ],
     [
      -122.6529606,
      45.4833159
     ],
     [
      -122.6533763,
      45.4827062
     ],
     [
      -122.6537128,
      45.4822235
     ],
     [
      -122.6540624,
      45.4817266
     ],
     [
      -122.6542213,
      45.4814998
     ],
     [
      -122.6543874,
      45.4812778
     ],
     [
      -122.6547525,
      45.4808711
     ],
     [
      -122.6547777,
      45.4808073
     ],
     [
      -122.6549047,
      45.4805624
     ],
     [
      -122.6549048,
      45.4805624
     ],
     [
      -122.655009,
      45.4803884
     ],
     [
      -122.6552391,
      45.4800244
     ],
     [
      -122.6553868,
      45.479819
     ],
     [
      -122.6555173,
      45.4796236
     ],
     [
      -122.6556678,
      45.4794197
     ],
     [
      -122.656016,
      45.4789121
     ],
     [
      -122.6563711,
      45.4784097
     ],
     [
      -122.6565336,
      45.4781727
     ],
     [
      -122.6566628,
      45.477993
     ],
     [
      -122.6569422,
      45.477598
     ],
     [
      -122.6569685,
      45.477561
     ],
     [
      -122.6571483,
      45.477305
     ],
     [
      -122.6572277,
      45.477192
     ],
     [
      -122.6575385,
      45.4767395
     ],
     [
      -122.6577975,
      45.4763717
     ],
     [
      -122.6580334,
      45.4760284
     ],
     [
      -122.6583195,
      45.475621
     ],
     [
      -122.6588323,
      45.4748904
     ],
     [
      -122.6592134,
      45.4743493
     ],
     [
      -122.6593915,
      45.4740965
     ],
     [
      -122.6594194,
      45.4740564
     ],
     [
      -122.6602056,
      45.4729257
     ],
     [
      -122.6604305,
      45.4726645
     ],
     [
      -122.6605313,
      45.4725526
     ],
     [
      -122.6606076,
      45.4724514
     ],
     [
      -122.6608106,
      45.4721585
     ],
     [
      -122.6608845,
      45.4720472
     ],
     [
      -122.6609199,
      45.4719874
     ],
     [
      -122.6610207,
      45.4717851
     ],
     [
      -122.6610986,
      45.4716644
     ],
     [
      -122.6612208,
      45.471485
     ],
     [
      -122.6613487,
      45.4712912
     ],
     [
      -122.6614604,
      45.4711115
     ],
     [
      -122.6615854,
      45.4709021
     ],
     [
      -122.6617016,
      45.4706891
     ],
     [
      -122.6618016,
      45.4704867
     ],
     [
      -122.6619118,
      45.4702405
     ],
     [
      -122.662044,
      45.4698902
     ],
     [
      -122.6621193,
      45.4696685
     ],
     [
      -122.6622336,
      45.4692666
     ],
     [
      -122.6623111,
      45.4689467
     ],
     [
      -122.6623633,
      45.4686399
     ],
     [
      -122.6624033,
      45.4681721
     ],
     [
      -122.662418,
      45.4678772
     ],
     [
      -122.6624087,
      45.4674776
     ],
     [
      -122.6623986,
      45.4673551
     ],
     [
      -122.6623986,
      45.4673551
     ],
     [
      -122.6623718,
      45.4670309
     ],
     [
      -122.6623563,
      45.4668853
     ],
     [
      -122.6623351,
      45.4667482
     ],
     [
      -122.6622885,
      45.4665177
     ],
     [
      -122.6622291,
      45.4662663
     ],
     [
      -122.6621344,
      45.4659244
     ],
     [
      -122.6619973,
      45.4655188
     ],
     [
      -122.6618967,
      45.4652303
     ],
     [
      -122.6618378,
      45.4651067
     ],
     [
      -122.6618338,
      45.4650983
     ],
     [
      -122.6617839,
      45.4649926
     ],
     [
      -122.6617685,
      45.4649522
     ],
     [
      -122.6614617,
      45.4643298
     ],
     [
      -122.661148,
      45.4637751
     ],
     [
      -122.6610799,
      45.4636573
     ],
     [
      -122.6610094,
      45.4635403
     ],
     [
      -122.6609365,
      45.463424
     ],
     [
      -122.6608611,
      45.4633085
     ],
     [
      -122.6607833,
      45.4631937
     ],
     [
      -122.6607031,
      45.4630798
     ],
     [
      -122.6606205,
      45.4629668
     ],
     [
      -122.6605386,
      45.4628589
     ],
     [
      -122.6599991,
      45.4621874
     ],
     [
      -122.6594612,
      45.461474
     ],
     [
      -122.6589974,
      45.4608615
     ],
     [
      -122.6588922,
      45.4607606
     ],
     [
      -122.658439,
      45.4603263
     ],
     [
      -122.658184,
      45.4601295
     ],
     [
      -122.6578746,
      45.4598887
     ],
     [
      -122.6577876,
      45.4598195
     ],
     [
      -122.6577853,
      45.4598177
     ],
     [
      -122.6577853,
      45.4598177
     ],
     [
      -122.6575349,
      45.4596187
     ],
     [
      -122.6571127,
      45.4593868
     ],
     [
      -122.6571127,
      45.4593868
     ],
     [
      -122.6571105,
      45.4592737
     ],
     [
      -122.6568619,
      45.4592472
     ],
     [
      -122.6567722,
      45.4592123
     ],
     [
      -122.6567722,
      45.4592123
     ],
     [
      -122.6563614,
      45.4590525
     ],
     [
      -122.6560844,
      45.4589452
     ],
     [
      -122.6558885,
      45.4588699
     ],
     [
      -122.6557802,
      45.4588409
     ],
     [
      -122.6553169,
      45.4587035
     ],
     [
      -122.6551105,
      45.4586574
     ],
     [
      -122.6548766,
      45.4586058
     ],
     [
      -122.6542731,
      45.4584725
     ],
     [
      -122.6536715,
      45.45839
     ],
     [
      -122.6534403,
      45.4583583
     ],
     [
      -122.6531164,
      45.4583145
     ],
     [
      -122.6531155,
      45.4583144
     ],
     [
      -122.6530967,
      45.4583909
     ],
     [
      -122.6528674,
      45.4583778
     ],
     [
      -122.6519669,
      45.458426
     ],
     [
      -122.6519669,
      45.458426
     ],
     [
      -122.6518643,
      45.4584315
     ],
     [
      -122.6494789,
      45.4585697
     ],
     [
      -122.6471544,
      45.4586851
     ],
     [
      -122.646843,
      45.4587299
     ],
     [
      -122.646843,
      45.4587299
     ],
     [
      -122.6460506,
      45.4587248
     ],
     [
      -122.6451773,
      45.4587255
     ],
     [
      -122.6450266,
      45.4587524
     ],
     [
      -122.6450266,
      45.4587524
     ],
     [
      -122.6450119,
      45.4587526
     ],
     [
      -122.6449974,
      45.4587544
     ],
     [
      -122.6449835,
      45.4587578
     ],
     [
      -122.6449705,
      45.4587628
     ],
     [
      -122.6449588,
      45.4587691
     ],
     [
      -122.6449487,
      45.4587766
     ],
     [
      -122.6447997,
      45.4588566
     ],
     [
      -122.6447729,
      45.4588709
     ],
     [
      -122.6447444,
      45.4588834
     ],
     [
      -122.6447143,
      45.458894
     ],
     [
      -122.6446829,
      45.4589026
     ],
     [
      -122.6446506,
      45.4589091
     ],
     [
      -122.6446175,
      45.4589135
     ],
     [
      -122.6443616,
      45.4589549
     ],
     [
      -122.644166,
      45.458995
     ],
     [
      -122.6439707,
      45.4590374
     ],
     [
      -122.6435511,
      45.4591289
     ],
     [
      -122.6431903,
      45.4592269
     ],
     [
      -122.6426975,
      45.4593627
     ],
     [
      -122.6426975,
      45.4593627
     ],
     [
      -122.6423051,
      45.4594709
     ],
     [
      -122.6419223,
      45.459578
     ],
     [
      -122.6419223,
      45.459578
     ],
     [
      -122.6415949,
      45.4596696
     ],
     [
      -122.6413595,
      45.4597343
     ],
     [
      -122.6413518,
      45.4597365
     ],
     [
      -122.6413458,
      45.4597382
     ],
     [
      -122.6398834,
      45.4601351
     ],
     [
      -122.6397232,
      45.4601786
     ],
     [
      -122.6397232,
      45.4601786
     ],
     [
      -122.6396306,
      45.4602038
     ],
     [
      -122.6396306,
      45.4602038
     ],
     [
      -122.6395148,
      45.4602353
     ],
     [
      -122.6391329,
      45.4603465
     ],
     [
      -122.6391329,
      45.4603465
     ],
     [
      -122.6390388,
      45.4603739
     ],
     [
      -122.6390388,
      45.4603739
     ],
     [
      -122.6390308,
      45.4603762
     ],
     [
      -122.6388899,
      45.460415
     ],
     [
      -122.6388037,
      45.4604387
     ],
     [
      -122.6388037,
      45.4604387
     ],
     [
      -122.6368767,
      45.4609678
     ],
     [
      -122.6368767,
      45.4609678
     ],
     [
      -122.6368594,
      45.4609726
     ],
     [
      -122.6368594,
      45.4609726
     ],
     [
      -122.6368003,
      45.4609888
     ],
     [
      -122.6366016,
      45.4610436
     ],
     [
      -122.6361578,
      45.4611649
     ],
     [
      -122.6361578,
      45.4611649
     ],
     [
      -122.6351218,
      45.4614611
     ],
     [
      -122.6350584,
      45.4614792
     ],
     [
      -122.6347774,
      45.4615582
     ],
     [
      -122.6347774,
      45.4615582
     ],
     [
      -122.634771,
      45.46156
     ],
     [
      -122.6337996,
      45.461836
     ],
     [
      -122.6326586,
      45.4621335
     ],
     [
      -122.6317099,
      45.4624023
     ],
     [
      -122.6313721,
      45.4624929
     ],
     [
      -122.6313721,
      45.4624929
     ],
     [
      -122.6313721,
      45.4624929
     ],
     [
      -122.6306877,
      45.4626765
     ],
     [
      -122.6305237,
      45.4627216
     ],
     [
      -122.6303586,
      45.4627647
     ],
     [
      -122.6301925,
      45.4628058
     ],
     [
      -122.6300254,
      45.4628449
     ],
     [
      -122.6298574,
      45.462882
     ],
     [
      -122.6296886,
      45.4629172
     ],
     [
      -122.6295189,
      45.4629502
     ],
     [
      -122.6293485,
      45.4629813
     ],
     [
      -122.6291773,
      45.4630103
     ],
     [
      -122.6284303,
      45.4631308
     ],
     [
      -122.6282635,
      45.4631551
     ],
     [
      -122.6280961,
      45.4631778
     ],
     [
      -122.6279283,
      45.4631987
     ],
     [
      -122.6277601,
      45.4632178
     ],
     [
      -122.6275915,
      45.4632352
     ],
     [
      -122.6274225,
      45.4632509
     ],
     [
      -122.6272533,
      45.4632648
     ],
     [
      -122.6266708,
      45.4633065
     ],
     [
      -122.6263884,
      45.4633196
     ],
     [
      -122.6263884,
      45.4633196
     ],
     [
      -122.6263884,
      45.4633196
     ],
     [
      -122.6263683,
      45.4633205
     ],
     [
      -122.6260237,
      45.4633281
     ],
     [
      -122.6255345,
      45.4633317
     ],
     [
      -122.6246959,
      45.4633218
     ],
     [
      -122.6244165,
      45.4633047
     ],
     [
      -122.6244028,
      45.4633041
     ],
     [
      -122.6242251,
      45.4632956
     ],
     [
      -122.6240642,
      45.4632919
     ],
     [
      -122.6240642,
      45.4632919
     ],
     [
      -122.6239752,
      45.4632785
     ],
     [
      -122.6234157,
      45.4632325
     ],
     [
      -122.6232297,
      45.4632121
     ],
     [
      -122.6229398,
      45.4631755
     ],
     [
      -122.6225931,
      45.4631315
     ],
     [
      -122.6222126,
      45.4630708
     ],
     [
      -122.6214805,
      45.4629372
     ],
     [
      -122.6211143,
      45.4628594
     ],
     [
      -122.6211143,
      45.4628594
     ],
     [
      -122.6210914,
      45.4628545
     ],
     [
      -122.6209553,
      45.4628232
     ],
     [
      -122.6209553,
      45.4628232
     ],
     [
      -122.6208949,
      45.4628093
     ],
     [
      -122.6206529,
      45.4627537
     ],
     [
      -122.6206529,
      45.4627537
     ],
     [
      -122.6203317,
      45.4626725
     ],
     [
      -122.6202062,
      45.4626407
     ],
     [
      -122.6202062,
      45.4626407
     ],
     [
      -122.6201291,
      45.462618
     ],
     [
      -122.6195269,
      45.46244
     ],
     [
      -122.6185945,
      45.4621497
     ],
     [
      -122.6180709,
      45.4621018
     ],
     [
      -122.6178622,
      45.4620444
     ],
     [
      -122.6175842,
      45.4619501
     ],
     [
      -122.6168168,
      45.4616879
     ],
     [
      -122.616733,
      45.4616607
     ],
     [
      -122.616733,
      45.4616607
     ],
     [
      -122.6167008,
      45.4616502
     ],
     [
      -122.6166723,
      45.4616422
     ],
     [
      -122.6166449,
      45.4616324
     ],
     [
      -122.6166188,
      45.4616209
     ],
     [
      -122.6165942,
      45.461608
     ],
     [
      -122.6165714,
      45.4615935
     ],
     [
      -122.6165504,
      45.4615777
     ],
     [
      -122.6165315,
      45.4615606
     ],
     [
      -122.6165148,
      45.4615425
     ],
     [
      -122.6164994,
      45.461522
     ],
     [
      -122.6164814,
      45.4615026
     ],
     [
      -122.6164609,
      45.4614844
     ],
     [
      -122.616438,
      45.4614677
     ],
     [
      -122.616413,
      45.4614526
     ],
     [
      -122.6163862,
      45.4614392
     ],
     [
      -122.6163576,
      45.4614276
     ],
     [
      -122.6158999,
      45.4612812
     ],
     [
      -122.6157501,
      45.4612399
     ],
     [
      -122.6144934,
      45.460836
     ],
     [
      -122.6144761,
      45.4608308
     ],
     [
      -122.6144146,
      45.4608123
     ],
     [
      -122.6136334,
      45.4605658
     ],
     [
      -122.6128128,
      45.460305
     ],
     [
      -122.6126451,
      45.4602515
     ],
     [
      -122.6126001,
      45.4602371
     ],
     [
      -122.6125524,
      45.4602219
     ],
     [
      -122.6121334,
      45.4600899
     ],
     [
      -122.6121334,
      45.4600899
     ],
     [
      -122.6121334,
      45.4600899
     ],
     [
      -122.6116352,
      45.459933
     ],
     [
      -122.6116001,
      45.4599221
     ],
     [
      -122.6115208,
      45.4598975
     ],
     [
      -122.6107969,
      45.4596696
     ],
     [
      -122.6101577,
      45.4594637
     ],
     [
      -122.6101304,
      45.4594547
     ],
     [
      -122.6101005,
      45.4594449
     ],
     [
      -122.6097101,
      45.4593264
     ],
     [
      -122.6095484,
      45.4592752
     ],
     [
      -122.6094377,
      45.4592343
     ],
     [
      -122.6094029,
      45.459223
     ],
     [
      -122.6093351,
      45.4592009
     ],
     [
      -122.6091693,
      45.4591448
     ],
     [
      -122.6090054,
      45.4590886
     ],
     [
      -122.6088179,
      45.4590269
     ],
     [
      -122.6085417,
      45.4589382
     ],
     [
      -122.6079264,
      45.4587461
     ],
     [
      -122.6074474,
      45.4585967
     ],
     [
      -122.6074474,
      45.4585967
     ],
     [
      -122.6074474,
      45.4585967
     ],
     [
      -122.6073979,
      45.4585813
     ],
     [
      -122.6073784,
      45.4585752
     ],
     [
      -122.6073229,
      45.4585578
     ],
     [
      -122.6070153,
      45.4584628
     ],
     [
      -122.6069443,
      45.4584409
     ],
     [
      -122.6063883,
      45.458269
     ],
     [
      -122.606343,
      45.4582556
     ],
     [
      -122.6062838,
      45.458238
     ],
     [
      -122.6056925,
      45.4580619
     ],
     [
      -122.6051206,
      45.457884
     ],
     [
      -122.6046908,
      45.4577394
     ],
     [
      -122.6046129,
      45.4577109
     ],
     [
      -122.6044987,
      45.4576749
     ],
     [
      -122.6040196,
      45.4575261
     ],
     [
      -122.6034812,
      45.4573572
     ],
     [
      -122.6028341,
      45.4571457
     ],
     [
      -122.6027514,
      45.4571195
     ],
     [
      -122.6027514,
      45.4571194
     ],
     [
      -122.6027514,
      45.4571194
     ],
     [
      -122.6023469,
      45.4569912
     ],
     [
      -122.6019845,
      45.4568748
     ],
     [
      -122.6019261,
      45.4568553
     ],
     [
      -122.6018625,
      45.4568365
     ],
     [
      -122.601554,
      45.4567409
     ],
     [
      -122.601335,
      45.4566698
     ],
     [
      -122.6008789,
      45.4565195
     ],
     [
      -122.6007876,
      45.4564915
     ],
     [
      -122.6006838,
      45.4564586
     ],
     [
      -122.6002699,
      45.4563315
     ],
     [
      -122.5992818,
      45.4560179
     ],
     [
      -122.5992642,
      45.4560133
     ],
     [
      -122.5992522,
      45.4560103
     ],
     [
      -122.5992398,
      45.4560083
     ],
     [
      -122.5992237,
      45.4560071
     ],
     [
      -122.5992075,
      45.4560076
     ],
     [
      -122.5991915,
      45.4560097
     ],
     [
      -122.5991762,
      45.4560134
     ],
     [
      -122.5991617,
      45.4560185
     ],
     [
      -122.5990952,
      45.456036
     ],
     [
      -122.5990888,
      45.4560341
     ],
     [
      -122.5990888,
      45.4560341
     ],
     [
      -122.5989782,
      45.4560013
     ],
     [
      -122.5988606,
      45.4559742
     ],
     [
      -122.5988606,
      45.4559742
     ],
     [
      -122.5988288,
      45.4559669
     ],
     [
      -122.5986937,
      45.4558495
     ],
     [
      -122.598543,
      45.4558066
     ],
     [
      -122.5982028,
      45.4557238
     ],
     [
      -122.5981144,
      45.4557061
     ],
     [
      -122.5978159,
      45.4556457
     ],
     [
      -122.5974512,
      45.4555875
     ],
     [
      -122.5970497,
      45.4555359
     ],
     [
      -122.596729,
      45.4555067
     ],
     [
      -122.5964046,
      45.4554861
     ],
     [
      -122.5960008,
      45.4554779
     ],
     [
      -122.5958352,
      45.455479
     ],
     [
      -122.5955099,
      45.4554858
     ],
     [
      -122.5950838,
      45.4555063
     ],
     [
      -122.5948508,
      45.4555292
     ],
     [
      -122.5944723,
      45.4555737
     ],
     [
      -122.5941545,
      45.4556237
     ],
     [
      -122.5938907,
      45.4556732
     ],
     [
      -122.5938907,
      45.4556732
     ],
     [
      -122.5937286,
      45.4557037
     ],
     [
      -122.593652,
      45.4557208
     ],
     [
      -122.5933591,
      45.4557864
     ],
     [
      -122.5933231,
      45.4557933
     ],
     [
      -122.5932866,
      45.4557987
     ],
     [
      -122.5932497,
      45.4558026
     ],
     [
      -122.5932125,
      45.4558049
     ],
     [
      -122.5931752,
      45.4558057
     ],
     [
      -122.593147,
      45.4558076
     ],
     [
      -122.5931191,
      45.4558112
     ],
     [
      -122.5930918,
      45.4558166
     ],
     [
      -122.5930653,
      45.4558238
     ],
     [
      -122.5930399,
      45.4558326
     ],
     [
      -122.5930157,
      45.4558431
     ],
     [
      -122.592993,
      45.455855
     ],
     [
      -122.5929719,
      45.4558683
     ],
     [
      -122.5929719,
      45.4558683
     ],
     [
      -122.5929608,
      45.4558764
     ],
     [
      -122.592705,
      45.455871
     ],
     [
      -122.5927013,
      45.4560379
     ],
     [
      -122.5927013,
      45.4560379
     ],
     [
      -122.5927011,
      45.4560453
     ],
     [
      -122.5927033,
      45.4560805
     ],
     [
      -122.5927033,
      45.4560805
     ],
     [
      -122.5925838,
      45.4561347
     ],
     [
      -122.5925199,
      45.4561636
     ],
     [
      -122.5923777,
      45.4561963
     ],
     [
      -122.5922375,
      45.4562331
     ],
     [
      -122.592079,
      45.4562718
     ],
     [
      -122.5920367,
      45.456285
     ],
     [
      -122.5919059,
      45.4563345
     ],
     [
      -122.5917277,
      45.4564177
     ],
     [
      -122.5914192,
      45.4565615
     ],
     [
      -122.5912797,
      45.4566371
     ],
     [
      -122.5911537,
      45.4567095
     ],
     [
      -122.5909877,
      45.4568075
     ],
     [
      -122.5907759,
      45.456933
     ],
     [
      -122.5906426,
      45.4570174
     ],
     [
      -122.5904373,
      45.4571581
     ],
     [
      -122.5901461,
      45.4573515
     ],
     [
      -122.5887668,
      45.458293
     ],
     [
      -122.5887668,
      45.458293
     ],
     [
      -122.5885204,
      45.4584611
     ],
     [
      -122.5885204,
      45.4584611
     ],
     [
      -122.5884493,
      45.4585096
     ],
     [
      -122.5873604,
      45.4592438
     ],
     [
      -122.5873604,
      45.4592438
     ],
     [
      -122.5867305,
      45.4596685
     ],
     [
      -122.5860609,
      45.4601199
     ],
     [
      -122.5853006,
      45.4606261
     ],
     [
      -122.5853006,
      45.4606261
     ],
     [
      -122.5850478,
      45.4607944
     ],
     [
      -122.5850478,
      45.4607944
     ],
     [
      -122.5846473,
      45.461061
     ],
     [
      -122.5845487,
      45.4611315
     ],
     [
      -122.5844119,
      45.4612004
     ],
     [
      -122.5841981,
      45.461331
     ],
     [
      -122.5841981,
      45.461331
     ],
     [
      -122.58364,
      45.4616719
     ],
     [
      -122.5832808,
      45.4618937
     ],
     [
      -122.5828298,
      45.4621632
     ],
     [
      -122.5822962,
      45.4624937
     ],
     [
      -122.5818056,
      45.4627884
     ],
     [
      -122.5814599,
      45.4629928
     ],
     [
      -122.5810974,
      45.4632217
     ],
     [
      -122.5809821,
      45.4632967
     ],
     [
      -122.5808407,
      45.4633913
     ],
     [
      -122.5806503,
      45.4635
     ],
     [
      -122.5803107,
      45.4637017
     ],
     [
      -122.5803107,
      45.4637017
     ],
     [
      -122.5803107,
      45.4637017
     ],
     [
      -122.5802477,
      45.4637392
     ],
     [
      -122.5794968,
      45.4642093
     ],
     [
      -122.579457,
      45.4642414
     ],
     [
      -122.5794119,
      45.4642874
     ],
     [
      -122.5793801,
      45.4643235
     ],
     [
      -122.5793425,
      45.4643619
     ],
     [
      -122.5793425,
      45.4643619
     ],
     [
      -122.579341,
      45.4643771
     ],
     [
      -122.5793369,
      45.4643921
     ],
     [
      -122.5793303,
      45.4644066
     ],
     [
      -122.5793211,
      45.4644204
     ],
     [
      -122.5793096,
      45.4644333
     ],
     [
      -122.579296,
      45.4644452
     ],
     [
      -122.5792804,
      45.4644558
     ],
     [
      -122.5792631,
      45.4644649
     ],
     [
      -122.5792443,
      45.4644725
     ],
     [
      -122.5792243,
      45.4644784
     ],
     [
      -122.5792035,
      45.4644826
     ],
     [
      -122.5791821,
      45.4644849
     ],
     [
      -122.5791821,
      45.4644849
     ],
     [
      -122.5791794,
      45.4644851
     ],
     [
      -122.5790425,
      45.4644829
     ],
     [
      -122.5789345,
      45.4644812
     ],
     [
      -122.5789345,
      45.4644812
     ],
     [
      -122.5789063,
      45.4644808
     ],
     [
      -122.5788901,
      45.4644819
     ],
     [
      -122.5788744,
      45.4644847
     ],
     [
      -122.5788594,
      45.4644892
     ],
     [
      -122.5788457,
      45.4644952
     ],
     [
      -122.5788333,
      45.4645026
     ],
     [
      -122.5788227,
      45.4645113
     ],
     [
      -122.5788141,
      45.464521
     ],
     [
      -122.5787239,
      45.464612
     ],
     [
      -122.5787239,
      45.464612
     ],
     [
      -122.5787729,
      45.4645071
     ],
     [
      -122.5787798,
      45.4644955
     ],
     [
      -122.5787892,
      45.4644847
     ],
     [
      -122.578801,
      45.4644753
     ],
     [
      -122.5788148,
      45.4644672
     ],
     [
      -122.5788302,
      45.4644608
     ],
     [
      -122.5788469,
      45.4644563
     ],
     [
      -122.5788645,
      45.4644537
     ],
     [
      -122.5789034,
      45.4644525
     ],
     [
      -122.5789341,
      45.4644524
     ],
     [
      -122.5789341,
      45.4644524
     ],
     [
      -122.5790433,
      45.4644518
     ],
     [
      -122.5791812,
      45.4644511
     ],
     [
      -122.5791812,
      45.4644511
     ],
     [
      -122.579184,
      45.464451
     ],
     [
      -122.5792054,
      45.4644482
     ],
     [
      -122.579226,
      45.4644433
     ],
     [
      -122.5792455,
      45.4644366
     ],
     [
      -122.5792636,
      45.464428
     ],
     [
      -122.5792799,
      45.4644178
     ],
     [
      -122.5792941,
      45.4644062
     ],
     [
      -122.5793059,
      45.4643933
     ],
     [
      -122.5793425,
      45.4643619
     ],
     [
      -122.5787239,
      45.464612
     ],
     [
      -122.5787184,
      45.464622
     ],
     [
      -122.5786813,
      45.4646736
     ],
     [
      -122.578657,
      45.4647015
     ],
     [
      -122.5786172,
      45.4647333
     ],
     [
      -122.5785563,
      45.4647736
     ],
     [
      -122.5779521,
      45.4651498
     ],
     [
      -122.5777268,
      45.4652808
     ],
     [
      -122.5773259,
      45.4655127
     ],
     [
      -122.5768855,
      45.4657849
     ],
     [
      -122.5763917,
      45.4660907
     ],
     [
      -122.5760333,
      45.4663127
     ],
     [
      -122.575659,
      45.4665266
     ],
     [
      -122.5753119,
      45.4667388
     ],
     [
      -122.5751982,
      45.4668158
     ],
     [
      -122.5750919,
      45.4668786
     ],
     [
      -122.574925,
      45.4669807
     ],
     [
      -122.574881,
      45.4670074
     ],
     [
      -122.574881,
      45.4670074
     ],
     [
      -122.574881,
      45.4670074
     ],
     [
      -122.5746179,
      45.4671669
     ],
     [
      -122.5745018,
      45.467243
     ],
     [
      -122.5742348,
      45.4674068
     ],
     [
      -122.5740286,
      45.4675254
     ],
     [
      -122.5738109,
      45.4676596
     ],
     [
      -122.5738109,
      45.4676596
     ],
     [
      -122.5737769,
      45.4676805
     ],
     [
      -122.5735613,
      45.4678098
     ],
     [
      -122.5732505,
      45.4680016
     ],
     [
      -122.5729491,
      45.4681818
     ],
     [
      -122.5726047,
      45.4683943
     ],
     [
      -122.5725284,
      45.4684383
     ],
     [
      -122.5725284,
      45.4684383
     ],
     [
      -122.5724077,
      45.468508
     ],
     [
      -122.5722823,
      45.4685918
     ],
     [
      -122.5722823,
      45.4685918
     ],
     [
      -122.5722459,
      45.4686162
     ],
     [
      -122.5719955,
      45.4687647
     ],
     [
      -122.5716334,
      45.4689914
     ],
     [
      -122.5712594,
      45.4692151
     ],
     [
      -122.5709275,
      45.4694179
     ],
     [
      -122.5706528,
      45.4695825
     ],
     [
      -122.5703056,
      45.469792
     ],
     [
      -122.5698535,
      45.4700659
     ],
     [
      -122.5697354,
      45.470142
     ],
     [
      -122.5691802,
      45.4704759
     ],
     [
      -122.5689807,
      45.4705956
     ],
     [
      -122.5689577,
      45.4706073
     ],
     [
      -122.5689361,
      45.4706203
     ],
     [
      -122.5689161,
      45.4706345
     ],
     [
      -122.5688978,
      45.4706498
     ],
     [
      -122.5688813,
      45.470666
     ],
     [
      -122.5688668,
      45.4706832
     ],
     [
      -122.5688543,
      45.4707011
     ],
     [
      -122.5688375,
      45.4707242
     ],
     [
      -122.5688181,
      45.4707464
     ],
     [
      -122.5687963,
      45.4707673
     ],
     [
      -122.5687721,
      45.4707869
     ],
     [
      -122.5687457,
      45.4708051
     ],
     [
      -122.5687447,
      45.4708055
     ],
     [
      -122.5687447,
      45.4708055
     ],
     [
      -122.5686252,
      45.4708578
     ],
     [
      -122.5685177,
      45.4709004
     ],
     [
      -122.5685176,
      45.4709004
     ],
     [
      -122.5598713,
      45.4755583
     ],
     [
      -122.559854,
      45.4755641
     ],
     [
      -122.5597534,
      45.4755866
     ],
     [
      -122.5596164,
      45.475627
     ],
     [
      -122.5594486,
      45.475676
     ],
     [
      -122.5590394,
      45.4757908
     ],
     [
      -122.5586126,
      45.4759065
     ],
     [
      -122.5578887,
      45.4760772
     ],
     [
      -122.5578026,
      45.4761016
     ],
     [
      -122.5578026,
      45.4761016
     ],
     [
      -122.5577062,
      45.4761132
     ],
     [
      -122.5571714,
      45.4762231
     ],
     [
      -122.5566953,
      45.4763205
     ],
     [
      -122.5566675,
      45.4763271
     ],
     [
      -122.5566389,
      45.4763316
     ],
     [
      -122.5566098,
      45.476334
     ],
     [
      -122.5565805,
      45.4763344
     ],
     [
      -122.5565513,
      45.4763326
     ],
     [
      -122.5565225,
      45.4763287
     ],
     [
      -122.5564844,
      45.4763234
     ],
     [
      -122.5564459,
      45.4763196
     ],
     [
      -122.5564072,
      45.4763174
     ],
     [
      -122.5563683,
      45.4763168
     ],
     [
      -122.5563295,
      45.4763179
     ],
     [
      -122.5562908,
      45.4763205
     ],
     [
      -122.5562524,
      45.4763248
     ],
     [
      -122.5559315,
      45.4763915
     ],
     [
      -122.5559047,
      45.4764046
     ],
     [
      -122.5559047,
      45.4764046
     ],
     [
      -122.555796,
      45.4764721
     ],
     [
      -122.5557559,
      45.4764953
     ],
     [
      -122.5557559,
      45.4764953
     ],
     [
      -122.5556567,
      45.4765545
     ],
     [
      -122.555644,
      45.4765642
     ],
     [
      -122.555644,
      45.4765642
     ],
     [
      -122.5556377,
      45.476569
     ],
     [
      -122.5555955,
      45.476595
     ],
     [
      -122.5555679,
      45.4766081
     ],
     [
      -122.5555391,
      45.4766197
     ],
     [
      -122.555509,
      45.4766298
     ],
     [
      -122.555478,
      45.4766382
     ],
     [
      -122.5554461,
      45.4766449
     ],
     [
      -122.5554136,
      45.4766499
     ],
     [
      -122.5553807,
      45.4766532
     ],
     [
      -122.5553475,
      45.4766547
     ],
     [
      -122.5552021,
      45.4766601
     ],
     [
      -122.5551693,
      45.476661
     ],
     [
      -122.5551366,
      45.4766634
     ],
     [
      -122.5551043,
      45.4766675
     ],
     [
      -122.5550724,
      45.4766731
     ],
     [
      -122.5550411,
      45.4766802
     ],
     [
      -122.5546155,
      45.4767725
     ],
     [
      -122.5539482,
      45.4769227
     ],
     [
      -122.5535166,
      45.4770108
     ],
     [
      -122.5528587,
      45.4771517
     ],
     [
      -122.552373,
      45.4772554
     ],
     [
      -122.5518835,
      45.4773607
     ],
     [
      -122.5513418,
      45.4774789
     ],
     [
      -122.5511734,
      45.4775143
     ],
     [
      -122.5507325,
      45.4776046
     ],
     [
      -122.5507325,
      45.4776046
     ],
     [
      -122.5507325,
      45.4776046
     ],
     [
      -122.5507282,
      45.4776054
     ],
     [
      -122.550374,
      45.4776793
     ],
     [
      -122.5500316,
      45.477754
     ],
     [
      -122.549391,
      45.4778881
     ],
     [
      -122.5491676,
      45.47794
     ],
     [
      -122.5489841,
      45.4779894
     ],
     [
      -122.5489841,
      45.4779894
     ],
     [
      -122.5488397,
      45.4780168
     ],
     [
      -122.5485128,
      45.478084
     ],
     [
      -122.5481062,
      45.4781656
     ],
     [
      -122.5478992,
      45.4782098
     ],
     [
      -122.5474636,
      45.4782966
     ],
     [
      -122.5468791,
      45.47842
     ],
     [
      -122.546767,
      45.478445
     ],
     [
      -122.5463855,
      45.4785192
     ],
     [
      -122.5459675,
      45.4786091
     ],
     [
      -122.5456753,
      45.4786718
     ],
     [
      -122.5452397,
      45.4787567
     ],
     [
      -122.5446647,
      45.4788738
     ],
     [
      -122.5445758,
      45.4788942
     ],
     [
      -122.5440461,
      45.4790077
     ],
     [
      -122.544046,
      45.4790077
     ],
     [
      -122.544046,
      45.4790077
     ],
     [
      -122.543943,
      45.4790298
     ],
     [
      -122.5433663,
      45.4791507
     ],
     [
      -122.5428496,
      45.4792614
     ],
     [
      -122.5422634,
      45.4793896
     ],
     [
      -122.5418705,
      45.479472
     ],
     [
      -122.5413925,
      45.4795731
     ],
     [
      -122.541137,
      45.4796281
     ],
     [
      -122.5406493,
      45.4797287
     ],
     [
      -122.5400398,
      45.4798616
     ],
     [
      -122.5394476,
      45.4799865
     ],
     [
      -122.5391202,
      45.4800559
     ],
     [
      -122.5391202,
      45.4800559
     ],
     [
      -122.5391202,
      45.4800559
     ],
     [
      -122.539047,
      45.4800715
     ],
     [
      -122.5386058,
      45.4801667
     ],
     [
      -122.5378859,
      45.4803196
     ],
     [
      -122.5376403,
      45.4803713
     ],
     [
      -122.5374893,
      45.4804054
     ],
     [
      -122.5374893,
      45.4804054
     ],
     [
      -122.5373537,
      45.480436
     ],
     [
      -122.5372124,
      45.4804611
     ],
     [
      -122.5372124,
      45.4804611
     ],
     [
      -122.5371871,
      45.4804656
     ],
     [
      -122.5369182,
      45.4805242
     ],
     [
      -122.5362602,
      45.480665
     ],
     [
      -122.5357957,
      45.4807629
     ],
     [
      -122.5352442,
      45.4808804
     ],
     [
      -122.5351204,
      45.4809095
     ],
     [
      -122.5345301,
      45.4810326
     ],
     [
      -122.5339262,
      45.4811608
     ],
     [
      -122.5335352,
      45.4812423
     ],
     [
      -122.5331985,
      45.4813132
     ],
     [
      -122.5328927,
      45.4813773
     ],
     [
      -122.5327961,
      45.481403
     ],
     [
      -122.5322883,
      45.4815129
     ],
     [
      -122.5322883,
      45.4815129
     ],
     [
      -122.5322883,
      45.4815129
     ],
     [
      -122.5322233,
      45.481527
     ],
     [
      -122.5321826,
      45.4815306
     ],
     [
      -122.5321071,
      45.4815488
     ],
     [
      -122.5316473,
      45.4816156
     ],
     [
      -122.531228,
      45.4816691
     ],
     [
      -122.5307657,
      45.481719
     ],
     [
      -122.5304527,
      45.4817459
     ],
     [
      -122.52997,
      45.4817721
     ],
     [
      -122.5296234,
      45.4817855
     ],
     [
      -122.5293191,
      45.4817845
     ],
     [
      -122.5289327,
      45.4817757
     ],
     [
      -122.5289327,
      45.4817757
     ],
     [
      -122.528841,
      45.4817736
     ],
     [
      -122.5282276,
      45.4817449
     ],
     [
      -122.5278875,
      45.4817215
     ],
     [
      -122.5275214,
      45.4816806
     ],
     [
      -122.5270865,
      45.4816269
     ],
     [
      -122.5266339,
      45.4815663
     ],
     [
      -122.5261834,
      45.4815106
     ],
     [
      -122.5261834,
      45.4815106
     ],
     [
      -122.5260091,
      45.481489
     ],
     [
      -122.5254331,
      45.4814145
     ],
     [
      -122.5253743,
      45.4814069
     ],
     [
      -122.5253687,
      45.4814062
     ],
     [
      -122.5253687,
      45.4814062
     ],
     [
      -122.5248612,
      45.4813448
     ],
     [
      -122.5244008,
      45.4812838
     ],
     [
      -122.5236235,
      45.4811947
     ],
     [
      -122.523554,
      45.481177
     ],
     [
      -122.5235314,
      45.4811836
     ],
     [
      -122.5235287,
      45.4811832
     ],
     [
      -122.5235287,
      45.4811832
     ],
     [
      -122.5229868,
      45.4811136
     ],
     [
      -122.5225755,
      45.4810632
     ],
     [
      -122.5217781,
      45.4809591
     ],
     [
      -122.5215236,
      45.4809297
     ],
     [
      -122.5209021,
      45.4808508
     ],
     [
      -122.5209021,
      45.4808508
     ],
     [
      -122.5207988,
      45.4808377
     ],
     [
      -122.5204227,
      45.4807892
     ],
     [
      -122.5198858,
      45.4807179
     ],
     [
      -122.519831,
      45.4807107
     ],
     [
      -122.519831,
      45.4807107
     ],
     [
      -122.5192707,
      45.480637
     ],
     [
      -122.5181758,
      45.480503
     ],
     [
      -122.5170492,
      45.4803521
     ],
     [
      -122.5169376,
      45.4803378
     ],
     [
      -122.5169376,
      45.4803378
     ],
     [
      -122.5159659,
      45.4802127
     ],
     [
      -122.5154039,
      45.4801458
     ],
     [
      -122.514665,
      45.4800478
     ],
     [
      -122.514665,
      45.4800478
     ],
     [
      -122.5143381,
      45.4800045
     ],
     [
      -122.5135173,
      45.4798978
     ],
     [
      -122.5132,
      45.4798588
     ],
     [
      -122.5125516,
      45.479775
     ],
     [
      -122.5121267,
      45.4797259
     ],
     [
      -122.512,
      45.4797126
     ],
     [
      -122.512,
      45.4797126
     ],
     [
      -122.5114645,
      45.4796384
     ],
     [
      -122.5110316,
      45.4795839
     ],
     [
      -122.5109217,
      45.47957
     ],
     [
      -122.510493,
      45.4795161
     ],
     [
      -122.5098681,
      45.4794359
     ],
     [
      -122.5091805,
      45.4793467
     ],
     [
      -122.5087635,
      45.4792979
     ],
     [
      -122.5080209,
      45.4791988
     ],
     [
      -122.5076292,
      45.4791506
     ],
     [
      -122.5071786,
      45.4790901
     ],
     [
      -122.5069381,
      45.4790603
     ],
     [
      -122.5069381,
      45.4790603
     ],
     [
      -122.5069381,
      45.4790603
     ],
     [
      -122.5065225,
      45.4790088
     ],
     [
      -122.5058095,
      45.4789182
     ],
     [
      -122.5053983,
      45.4788689
     ],
     [
      -122.5045559,
      45.478758
     ],
     [
      -122.5042445,
      45.4787193
     ],
     [
      -122.5031946,
      45.4785837
     ],
     [
      -122.5029067,
      45.4785484
     ],
     [
      -122.5026073,
      45.4785224
     ],
     [
      -122.502048,
      45.4784739
     ],
     [
      -122.5018638,
      45.4784666
     ],
     [
      -122.5018638,
      45.4784666
     ],
     [
      -122.5018638,
      45.4784666
     ],
     [
      -122.5016243,
      45.4784572
     ],
     [
      -122.5013279,
      45.4784555
     ],
     [
      -122.5012897,
      45.4784551
     ],
     [
      -122.5012615,
      45.4784548
     ],
     [
      -122.5009596,
      45.4784647
     ],
     [
      -122.5004928,
      45.4784965
     ],
     [
      -122.5002758,
      45.4785191
     ],
     [
      -122.5001411,
      45.4785332
     ],
     [
      -122.4998365,
      45.4785753
     ],
     [
      -122.4995669,
      45.4786157
     ],
     [
      -122.4992705,
      45.4786721
     ],
     [
      -122.4989436,
      45.4787464
     ],
     [
      -122.4986634,
      45.4788195
     ],
     [
      -122.4985291,
      45.4788517
     ],
     [
      -122.4984776,
      45.4788803
     ],
     [
      -122.4984178,
      45.478885
     ],
     [
      -122.4981368,
      45.4789815
     ],
     [
      -122.4977211,
      45.4791372
     ],
     [
      -122.4976173,
      45.4791814
     ],
     [
      -122.4972829,
      45.479319
     ],
     [
      -122.4970152,
      45.4794439
     ],
     [
      -122.4970152,
      45.4794439
     ],
     [
      -122.4970152,
      45.4794439
     ],
     [
      -122.4969529,
      45.4794729
     ],
     [
      -122.4967708,
      45.4795615
     ],
     [
      -122.4965275,
      45.4796857
     ],
     [
      -122.4961735,
      45.4798795
     ],
     [
      -122.4960225,
      45.479966
     ],
     [
      -122.4953299,
      45.4803991
     ],
     [
      -122.4950265,
      45.4805879
     ],
     [
      -122.4947917,
      45.4807329
     ],
     [
      -122.4943939,
      45.4809725
     ],
     [
      -122.4943939,
      45.4809725
     ],
     [
      -122.4943907,
      45.4809745
     ],
     [
      -122.4939782,
      45.4812425
     ],
     [
      -122.4939782,
      45.4812425
     ],
     [
      -122.4938454,
      45.4813288
     ],
     [
      -122.4937923,
      45.481362
     ],
     [
      -122.4934638,
      45.4815675
     ],
     [
      -122.493195,
      45.4817439
     ],
     [
      -122.4931099,
      45.4817968
     ],
     [
      -122.4931098,
      45.4817969
     ],
     [
      -122.4931098,
      45.4817969
     ],
     [
      -122.4925233,
      45.4821617
     ],
     [
      -122.4919431,
      45.4825225
     ],
     [
      -122.4918058,
      45.4826116
     ],
     [
      -122.4917733,
      45.4826216
     ],
     [
      -122.4917717,
      45.4826226
     ],
     [
      -122.4917717,
      45.4826226
     ],
     [
      -122.4917287,
      45.4826482
     ],
     [
      -122.491583,
      45.4827405
     ],
     [
      -122.4913765,
      45.4828728
     ],
     [
      -122.4910182,
      45.4831188
     ],
     [
      -122.490537,
      45.4834095
     ],
     [
      -122.4902756,
      45.4835745
     ],
     [
      -122.4899437,
      45.4837866
     ],
     [
      -122.4897644,
      45.4839022
     ],
     [
      -122.4895106,
      45.4840612
     ],
     [
      -122.489263,
      45.4841987
     ],
     [
      -122.4892629,
      45.4841987
     ],
     [
      -122.4892629,
      45.4841987
     ],
     [
      -122.4892562,
      45.4842025
     ],
     [
      -122.489038,
      45.4843203
     ],
     [
      -122.4889634,
      45.4843612
     ],
     [
      -122.4887544,
      45.4844631
     ],
     [
      -122.4885033,
      45.4845867
     ],
     [
      -122.4882879,
      45.4846726
     ],
     [
      -122.488134,
      45.4847344
     ],
     [
      -122.4880532,
      45.4847664
     ],
     [
      -122.4879628,
      45.484801
     ],
     [
      -122.4876199,
      45.4849225
     ],
     [
      -122.4872957,
      45.4850199
     ],
     [
      -122.4870156,
      45.4850954
     ],
     [
      -122.4870049,
      45.4850976
     ],
     [
      -122.4870049,
      45.4850976
     ],
     [
      -122.4867213,
      45.4851579
     ],
     [
      -122.4860495,
      45.4852971
     ],
     [
      -122.4854546,
      45.4854051
     ],
     [
      -122.4852582,
      45.485445
     ],
     [
      -122.4850776,
      45.4854863
     ],
     [
      -122.4850776,
      45.4854863
     ],
     [
      -122.4846043,
      45.4855712
     ],
     [
      -122.4841198,
      45.4856593
     ],
     [
      -122.4835192,
      45.4857736
     ],
     [
      -122.4829593,
      45.4858783
     ],
     [
      -122.4827519,
      45.485916
     ],
     [
      -122.482376,
      45.4859859
     ],
     [
      -122.4818433,
      45.4860865
     ],
     [
      -122.4814382,
      45.4861592
     ],
     [
      -122.4809712,
      45.4862449
     ],
     [
      -122.480386,
      45.4863514
     ],
     [
      -122.4800992,
      45.486405
     ],
     [
      -122.4800992,
      45.486405
     ],
     [
      -122.4800992,
      45.486405
     ],
     [
      -122.4800527,
      45.4864137
     ],
     [
      -122.4789548,
      45.4866182
     ],
     [
      -122.4787539,
      45.4866526
     ],
     [
      -122.4785238,
      45.486694
     ],
     [
      -122.4779892,
      45.4867991
     ],
     [
      -122.4774292,
      45.4869037
     ],
     [
      -122.4771618,
      45.4869534
     ],
     [
      -122.4765281,
      45.487068
     ],
     [
      -122.4760959,
      45.4871478
     ],
     [
      -122.4758693,
      45.4871922
     ],
     [
      -122.4757314,
      45.4872175
     ],
     [
      -122.4756052,
      45.4872438
     ],
     [
      -122.4756052,
      45.4872438
     ],
     [
      -122.4754766,
      45.4872705
     ],
     [
      -122.4753443,
      45.4872933
     ],
     [
      -122.4751513,
      45.487327
     ],
     [
      -122.4751513,
      45.487327
     ],
     [
      -122.4749082,
      45.4873696
     ],
     [
      -122.4742923,
      45.487492
     ],
     [
      -122.4737829,
      45.4875928
     ],
     [
      -122.4732463,
      45.4876977
     ],
     [
      -122.4727851,
      45.4877825
     ],
     [
      -122.472351,
      45.4878635
     ],
     [
      -122.4718608,
      45.4879554
     ],
     [
      -122.4709867,
      45.4881136
     ],
     [
      -122.469535,
      45.488708
     ],
     [
      -122.468789,
      45.489077
     ],
     [
      -122.467995,
      45.489543
     ],
     [
      -122.467325,
      45.490009
     ],
     [
      -122.466853,
      45.490393
     ],
     [
      -122.465812,
      45.491404
     ],
     [
      -122.465018,
      45.492555
     ],
     [
      -122.464117,
      45.494338
     ],
     [
      -122.462304,
      45.497549
     ],
     [
      -122.460737,
      45.500399
     ],
     [
      -122.459446,
      45.502747
     ],
     [
      -122.458509,
      45.504436
     ],
     [
      -122.457901,
      45.505522
     ],
     [
      -122.457227,
      45.507003
     ],
     [
      -122.456852,
      45.508528
     ],
     [
      -122.456666,
      45.509695
     ],
     [
      -122.456685,
      45.511656
     ],
     [
      -122.456732,
      45.514047
     ],
     [
      -122.456718,
      45.51413
     ],
     [
      -122.456673,
      45.514207
     ],
     [
      -122.456601,
      45.514274
     ],
     [
      -122.456507,
      45.514325
     ],
     [
      -122.456397,
      45.514356
     ],
     [
      -122.456279,
      45.514366
     ],
     [
      -122.456162,
      45.514354
     ],
     [
      -122.456053,
      45.514321
     ],
     [
      -122.432392,
      45.504257
     ],
     [
      -122.431315,
      45.503816
     ],
     [
      -122.430266,
      45.503396
     ],
     [
      -122.429486,
      45.503137
     ],
     [
      -122.428637,
      45.502918
     ],
     [
      -122.426873,
      45.502571
     ],
     [
      -122.425612,
      45.502333
     ],
     [
      -122.424886,
      45.502203
     ],
     [
      -122.424479,
      45.502159
     ],
     [
      -122.424058,
      45.502135
     ],
     [
      -122.420858,
      45.502106
     ],
     [
      -122.419884,
      45.502007
     ],
     [
      -122.418838,
      45.501838
     ],
     [
      -122.418162,
      45.501712
     ],
     [
      -122.417522,
      45.501565
     ],
     [
      -122.41352,
      45.500091
     ],
     [
      -122.413066,
      45.499859
     ],
     [
      -122.412629,
      45.499587
     ],
     [
      -122.41176,
      45.49903
     ],
     [
      -122.411261,
      45.498675
     ],
     [
      -122.408498,
      45.49618
     ],
     [
      -122.403048,
      45.491735
     ],
     [
      -122.393467,
      45.483153
     ],
     [
      -122.382664,
      45.473674
     ],
     [
      -122.382041,
      45.473257
     ],
     [
      -122.38129,
      45.472824
     ],
     [
      -122.380636,
      45.472531
     ],
     [
      -122.379917,
      45.472268
     ],
     [
      -122.379198,
      45.472087
     ],
     [
      -122.378415,
      45.471936
     ],
     [
      -122.377998,
      45.471872
     ],
     [
      -122.377481,
      45.471814
     ],
     [
      -122.367053,
      45.471357
     ],
     [
      -122.299,
      45.467859
     ],
     [
      -122.298614,
      45.467821
     ],
     [
      -122.298142,
      45.467753
     ],
     [
      -122.297756,
      45.467625
     ],
     [
      -122.297455,
      45.46749
     ],
     [
      -122.297112,
      45.467226
     ],
     [
      -122.295932,
      45.466301
     ],
     [
      -122.295706,
      45.466143
     ],
     [
      -122.295481,
      45.466038
     ],
     [
      -122.293925,
      45.465218
     ],
     [
      -122.293206,
      45.464924
     ],
     [
      -122.290825,
      45.464126
     ],
     [
      -122.290127,
      45.463856
     ],
     [
      -122.289408,
      45.463449
     ],
     [
      -122.288604,
      45.462915
     ],
     [
      -122.28826,
      45.462636
     ],
     [
      -122.288046,
      45.462268
     ],
     [
      -122.287939,
      45.461478
     ],
     [
      -122.287788,
      45.46083
     ],
     [
      -122.28766,
      45.460552
     ],
     [
      -122.287027,
      45.459777
     ],
     [
      -122.286061,
      45.458754
     ],
     [
      -122.285691,
      45.458383
     ],
     [
      -122.285291,
      45.458065
     ],
     [
      -122.285016,
      45.457855
     ],
     [
      -122.28476,
      45.457679
     ],
     [
      -122.28439,
      45.457474
     ],
     [
      -122.284012,
      45.457286
     ],
     [
      -122.283488,
      45.457046
     ],
     [
      -122.282899,
      45.456795
     ],
     [
      -122.282341,
      45.456565
     ],
     [
      -122.282028,
      45.456454
     ],
     [
      -122.281727,
      45.456372
     ],
     [
      -122.280595,
      45.456206
     ],
     [
      -122.280117,
      45.456168
     ],
     [
      -122.279634,
      45.456153
     ],
     [
      -122.279197,
      45.456174
     ],
     [
      -122.278744,
      45.456214
     ],
     [
      -122.27817,
      45.4563
     ],
     [
      -122.277671,
      45.456439
     ],
     [
      -122.277129,
      45.456622
     ],
     [
      -122.276684,
      45.456808
     ],
     [
      -122.276298,
      45.457004
     ],
     [
      -122.275965,
      45.457203
     ],
     [
      -122.275579,
      45.457497
     ],
     [
      -122.274941,
      45.45811
     ],
     [
      -122.274372,
      45.458691
     ],
     [
      -122.273704,
      45.459053
     ],
     [
      -122.273141,
      45.459224
     ],
     [
      -122.272761,
      45.459312
     ],
     [
      -122.272317,
      45.459356
     ],
     [
      -122.271706,
      45.459333
     ],
     [
      -122.27088,
      45.459145
     ],
     [
      -122.269914,
      45.458776
     ],
     [
      -122.266937,
      45.457226
     ],
     [
      -122.266127,
      45.456895
     ],
     [
      -122.265676,
      45.456518
     ],
     [
      -122.265269,
      45.455856
     ],
     [
      -122.264936,
      45.455254
     ],
     [
      -122.263927,
      45.454332
     ],
     [
      -122.263048,
      45.45341
     ],
     [
      -122.262018,
      45.452289
     ],
     [
      -122.261063,
      45.451852
     ],
     [
      -122.260172,
      45.451529
     ],
     [
      -122.259486,
      45.451228
     ],
     [
      -122.258982,
      45.451036
     ],
     [
      -122.258348,
      45.450874
     ],
     [
      -122.25748,
      45.450945
     ],
     [
      -122.256675,
      45.451062
     ],
     [
      -122.255452,
      45.451529
     ],
     [
      -122.254583,
      45.451574
     ],
     [
      -122.253413,
      45.451363
     ],
     [
      -122.252705,
      45.450964
     ],
     [
      -122.251815,
      45.450482
     ],
     [
      -122.250903,
      45.450309
     ],
     [
      -122.249787,
      45.450498
     ],
     [
      -122.249122,
      45.450731
     ],
     [
      -122.248478,
      45.450753
     ],
     [
      -122.248183,
      45.450723
     ],
     [
      -122.247931,
      45.450603
     ],
     [
      -122.247963,
      45.450392
     ],
     [
      -122.248113,
      45.450215
     ],
     [
      -122.248306,
      45.450068
     ],
     [
      -122.248574,
      45.449647
     ],
     [
      -122.249041,
      45.449173
     ],
     [
      -122.249186,
      45.448819
     ],
     [
      -122.249036,
      45.447645
     ],
     [
      -122.248596,
      45.444724
     ],
     [
      -122.248505,
      45.443998
     ],
     [
      -122.248328,
      45.443302
     ],
     [
      -122.248172,
      45.443095
     ],
     [
      -122.247995,
      45.442903
     ],
     [
      -122.247662,
      45.442688
     ],
     [
      -122.247351,
      45.442489
     ],
     [
      -122.246289,
      45.442278
     ],
     [
      -122.245259,
      45.442112
     ],
     [
      -122.243827,
      45.441917
     ],
     [
      -122.243114,
      45.441691
     ],
     [
      -122.241826,
      45.440833
     ],
     [
      -122.240249,
      45.439681
     ],
     [
      -122.237814,
      45.437897
     ],
     [
      -122.237229,
      45.437336
     ],
     [
      -122.236859,
      45.436775
     ],
     [
      -122.236194,
      45.43603
     ],
     [
      -122.235998,
      45.435644
     ],
     [
      -122.236059,
      45.435243
     ],
     [
      -122.23614,
      45.434833
     ],
     [
      -122.236043,
      45.434418
     ],
     [
      -122.235464,
      45.433432
     ],
     [
      -122.235432,
      45.433063
     ],
     [
      -122.235442,
      45.432521
     ],
     [
      -122.23548,
      45.431893
     ],
     [
      -122.23555,
      45.431294
     ],
     [
      -122.235475,
      45.430677
     ],
     [
      -122.235174,
      45.430195
     ],
     [
      -122.234289,
      45.429077
     ],
     [
      -122.232966,
      45.42765
     ]
    ]
   }
  }
 ]
}