{
 "type": "FeatureCollection",
 "features": [
  {
   "type": "Feature",
   "properties": {
    "id": "linnemann",
    "source": "Cameron Booth (1920 map); Linnemann Junction from the Springwater Line"
   },
   "geometry": {
    "type": "LineString",
    "coordinates": [
     [
      -122.470994,
      45.488112
     ],
     [
      -122.469535,
      45.488708
     ],
     [
      -122.468789,
      45.489077
     ],
     [
      -122.467995,
      45.489543
     ],
     [
      -122.467325,
      45.490009
     ],
     [
      -122.466853,
      45.490393
     ],
     [
      -122.465812,
      45.491404
     ],
     [
      -122.465018,
      45.492555
     ],
     [
      -122.464117,
      45.494338
     ],
     [
      -122.462304,
      45.497549
     ],
     [
      -122.460737,
      45.500399
     ],
     [
      -122.459446,
      45.502747
     ],
     [
      -122.458509,
      45.504436
     ],
     [
      -122.457901,
      45.505522
     ],
     [
      -122.457227,
      45.507003
     ],
     [
      -122.456852,
      45.508528
     ],
     [
      -122.456666,
      45.509695
     ],
     [
      -122.456685,
      45.511656
     ],
     [
      -122.456732,
      45.514047
     ],
     [
      -122.456718,
      45.51413
     ],
     [
      -122.456673,
      45.514207
     ],
     [
      -122.456601,
      45.514274
     ],
     [
      -122.456507,
      45.514325
     ],
     [
      -122.456923,
      45.514982
     ],
     [
      -122.456853,
      45.515053
     ],
     [
      -122.456813,
      45.515133
     ],
     [
      -122.456805,
      45.515219
     ],
     [
      -122.457031,
      45.51745
     ],
     [
      -122.457143,
      45.519586
     ],
     [
      -122.457368,
      45.530688
     ],
     [
      -122.457341,
      45.531319
     ],
     [
      -122.457315,
      45.531801
     ],
     [
      -122.45714,
      45.532404
     ],
     [
      -122.456886,
      45.533033
     ],
     [
      -122.456124,
      45.534086
     ],
     [
      -122.455298,
      45.534807
     ],
     [
      -122.454343,
      45.535461
     ],
     [
      -122.452991,
      45.536017
     ],
     [
      -122.451671,
      45.536318
     ],
     [
      -122.450684,
      45.53646
     ],
     [
      -122.45018,
      45.536505
     ],
     [
      -122.449343,
      45.536475
     ],
     [
      -122.448206,
      45.536385
     ],
     [
      -122.440245,
      45.535002
     ],
     [
      -122.438239,
      45.534867
     ],
     [
      -122.436833,
      45.53486
     ],
     [
      -122.434945,
      45.534957
     ],
     [
      -122.432703,
      45.53528
     ],
     [
      -122.407565,
      45.538685
     ],
     [
      -122.406396,
      45.53882
     ],
     [
      -122.395804,
      45.539265
     ],
     [
      -122.395165,
      45.539325
     ],
     [
      -122.394604,
      45.539456
     ],
     [
      -122.394036,
      45.539617
     ],
     [
      -122.393558,
      45.539836
     ],
     [
      -122.393135,
      45.540067
     ],
     [
      -122.392448,
      45.540616
     ]
    ]
   }
  },
  {
   "type": "Feature",
   "properties": {
    "id": "montavilla",
    "source": "Cameron Booth (1920 map); Linnemann Junction from the Springwater Line"
   },
   "geometry": {
    "type": "LineString",
    "coordinates": [
     [
      -122.57322,
      45.531838
     ],
     [
      -122.573,
      45.5318
     ],
     [
      -122.57263,
      45.531706
     ],
     [
      -122.572303,
      45.531548
     ],
     [
      -122.57204,
      45.531383
     ],
     [
      -122.571863,
      45.53124
     ],
     [
      -122.571723,
      45.531101
     ],
     [
      -122.571659,
      45.53097
     ],
     [
      -122.571411,
      45.529287
     ],
     [
      -122.570981,
      45.52613
     ],
     [
      -122.570976,
      45.524659
     ],
     [
      -122.570923,
      45.524286
     ],
     [
      -122.570769,
      45.523927
     ],
     [
      -122.57052,
      45.523596
     ],
     [
      -122.570184,
      45.523304
     ],
     [
      -122.569775,
      45.523064
     ],
     [
      -122.569308,
      45.522883
     ],
     [
      -122.5688,
      45.522769
     ],
     [
      -122.568271,
      45.522726
     ],
     [
      -122.477045,
      45.522
     ],
     [
      -122.47608,
      45.521969
     ],
     [
      -122.475114,
      45.521849
     ],
     [
      -122.473912,
      45.521609
     ],
     [
      -122.473032,
      45.521383
     ],
     [
      -122.472174,
      45.521082
     ],
     [
      -122.457483,
      45.514927
     ],
     [
      -122.457371,
      45.514893
     ],
     [
      -122.45725,
      45.514881
     ],
     [
      -122.457129,
      45.514894
     ],
     [
      -122.457017,
      45.514928
     ],
     [
      -122.456923,
      45.514982
     ],
     [
      -122.456853,
      45.515053
     ],
     [
      -122.456813,
      45.515133
     ],
     [
      -122.456805,
      45.515219
     ],
     [
      -122.457031,
      45.51745
     ],
     [
      -122.457143,
      45.519586
     ],
     [
      -122.457368,
      45.530688
     ],
     [
      -122.457341,
      45.531319
     ],
     [
      -122.457315,
      45.531801
     ],
     [
      -122.45714,
      45.532404
     ],
     [
      -122.456886,
      45.533033
     ],
     [
      -122.456124,
      45.534086
     ],
     [
      -122.455298,
      45.534807
     ],
     [
      -122.454343,
      45.535461
     ],
     [
      -122.452991,
      45.536017
     ],
     [
      -122.451671,
      45.536318
     ],
     [
      -122.450684,
      45.53646
     ],
     [
      -122.45018,
      45.536505
     ],
     [
      -122.449343,
      45.536475
     ],
     [
      -122.448206,
      45.536385
     ],
     [
      -122.440245,
      45.535002
     ],
     [
      -122.438239,
      45.534867
     ],
     [
      -122.436833,
      45.53486
     ],
     [
      -122.434945,
      45.534957
     ],
     [
      -122.432703,
      45.53528
     ],
     [
      -122.407565,
      45.538685
     ],
     [
      -122.406396,
      45.53882
     ],
     [
      -122.395804,
      45.539265
     ],
     [
      -122.395165,
      45.539325
     ],
     [
      -122.394604,
      45.539456
     ],
     [
      -122.394036,
      45.539617
     ],
     [
      -122.393558,
      45.539836
     ],
     [
      -122.393135,
      45.540067
     ],
     [
      -122.392448,
      45.540616
     ]
    ]
   }
  }
 ]
}