{"type":"FeatureCollection","features":[
{"type": "Feature", "properties": {"id": "oregon-city", "name": "Oregon City"}, "geometry": {"type": "Point", "coordinates": [-122.599523, 45.362317]}},
{"type": "Feature", "properties": {"id": "buena-vista", "name": "Buena Vista", "aliases": ["Kansas City"]}, "geometry": {"type": "Point", "coordinates": [-122.586991, 45.361073]}},
{"type": "Feature", "properties": {"id": "collis", "name": "Collis"}, "geometry": {"type": "Point", "coordinates": [-122.57818, 45.357079]}},
{"type": "Feature", "properties": {"id": "campine", "name": "Campine"}, "geometry": {"type": "Point", "coordinates": [-122.573428, 45.352927]}},
{"type": "Feature", "properties": {"id": "mcbain", "name": "McBain"}, "geometry": {"type": "Point", "coordinates": [-122.576085, 45.348839]}},
{"type": "Feature", "properties": {"id": "maple-lane", "name": "Maple Lane"}, "geometry": {"type": "Point", "coordinates": [-122.572094, 45.333907]}},
{"type": "Feature", "properties": {"id": "robbins", "name": "Robbins"}, "geometry": {"type": "Point", "coordinates": [-122.569248, 45.329401]}},
{"type": "Feature", "properties": {"id": "glen-oak", "name": "Glen Oak"}, "geometry": {"type": "Point", "coordinates": [-122.563985, 45.316933]}},
{"type": "Feature", "properties": {"id": "eby", "name": "Eby"}, "geometry": {"type": "Point", "coordinates": [-122.549607, 45.300331]}},
{"type": "Feature", "properties": {"id": "swift", "name": "Swift"}, "geometry": {"type": "Point", "coordinates": [-122.559226, 45.309181]}},
{"type": "Feature", "properties": {"id": "beaver-creek", "name": "Beaver Creek"}, "geometry": {"type": "Point", "coordinates": [-122.542538, 45.289003]}},
{"type": "Feature", "properties": {"id": "ingram", "name": "Ingram"}, "geometry": {"type": "Point", "coordinates": [-122.551734, 45.269216]}},
{"type": "Feature", "properties": {"id": "spangler", "name": "Spangler"}, "geometry": {"type": "Point", "coordinates": [-122.560554, 45.259056]}},
{"type": "Feature", "properties": {"id": "lewis", "name": "Lewis"}, "geometry": {"type": "Point", "coordinates": [-122.565048, 45.253943]}},
{"type": "Feature", "properties": {"id": "buckner-creek", "name": "Buckner Creek"}, "geometry": {"type": "Point", "coordinates": [-122.556201, 45.233726]}},
{"type": "Feature", "properties": {"id": "howard", "name": "Howard"}, "geometry": {"type": "Point", "coordinates": [-122.581827, 45.22792]}},
{"type": "Feature", "properties": {"id": "mulino", "name": "Mulino"}, "geometry": {"type": "Point", "coordinates": [-122.58654, 45.221653]}},
{"type": "Feature", "properties": {"id": "north-liberal", "name": "North Liberal"}, "geometry": {"type": "Point", "coordinates": [-122.587564, 45.195442]}},
{"type": "Feature", "properties": {"id": "liberal", "name": "Liberal"}, "geometry": {"type": "Point", "coordinates": [-122.591804, 45.187069]}},
{"type": "Feature", "properties": {"id": "huntley", "name": "Huntley"}, "geometry": {"type": "Point", "coordinates": [-122.592548, 45.177498]}},
{"type": "Feature", "properties": {"id": "richard", "name": "Richard"}, "geometry": {"type": "Point", "coordinates": [-122.587153, 45.163206]}},
{"type": "Feature", "properties": {"id": "molalla", "name": "Molalla"}, "geometry": {"type": "Point", "coordinates": [-122.583388, 45.148697]}},
{"type": "Feature", "properties": {"id": "kayler", "name": "Kayler", "aliases": ["Kaylor"]}, "geometry": {"type": "Point", "coordinates": [-122.599446, 45.146399]}},
{"type": "Feature", "properties": {"id": "ogle", "name": "Ogle"}, "geometry": {"type": "Point", "coordinates": [-122.630126, 45.143702]}},
{"type": "Feature", "properties": {"id": "hitchman", "name": "Hitchman"}, "geometry": {"type": "Point", "coordinates": [-122.650439, 45.141607]}},
{"type": "Feature", "properties": {"id": "yoder", "name": "Yoder"}, "geometry": {"type": "Point", "coordinates": [-122.681603, 45.138094]}},
{"type": "Feature", "properties": {"id": "busch", "name": "Busch"}, "geometry": {"type": "Point", "coordinates": [-122.701707, 45.12822]}},
{"type": "Feature", "properties": {"id": "wilda", "name": "Wilda"}, "geometry": {"type": "Point", "coordinates": [-122.719959, 45.118963]}},
{"type": "Feature", "properties": {"id": "harding", "name": "Harding"}, "geometry": {"type": "Point", "coordinates": [-122.728181, 45.114841]}},
{"type": "Feature", "properties": {"id": "monitor", "name": "Monitor"}, "geometry": {"type": "Point", "coordinates": [-122.7508, 45.100635]}},
{"type": "Feature", "properties": {"id": "dominic", "name": "Dominic"}, "geometry": {"type": "Point", "coordinates": [-122.767175, 45.085523]}},
{"type": "Feature", "properties": {"id": "berning", "name": "Berning", "aliases": ["Bernice"]}, "geometry": {"type": "Point", "coordinates": [-122.782003, 45.071452]}},
{"type": "Feature", "properties": {"id": "college", "name": "College"}, "geometry": {"type": "Point", "coordinates": [-122.786843, 45.066888]}},
{"type": "Feature", "properties": {"id": "mt-angel", "name": "Mt. Angel"}, "geometry": {"type": "Point", "coordinates": [-122.798513, 45.065931]}}
]}
