{"type":"FeatureCollection","features":[
{"type": "Feature", "properties": {"id": "main", "name": "Oregon City – Mt. Angel", "source": "plats"}, "geometry": {"type": "LineString", "coordinates": [[-122.601471, 45.363291], [-122.598987, 45.362044], [-122.598696, 45.361941], [-122.598292, 45.361866], [-122.597983, 45.361853], [-122.597574, 45.361894], [-122.59668, 45.362136], [-122.596072, 45.362246], [-122.59556, 45.362294], [-122.595046, 45.362302], [-122.590118, 45.361932], [-122.588376, 45.361768], [-122.587878, 45.361641], [-122.587504, 45.36147], [-122.58702, 45.361089], [-122.586666, 45.360877], [-122.585905, 45.360562], [-122.585554, 45.360349], [-122.585336, 45.360131], [-122.585275, 45.360048], [-122.585231, 45.359852], [-122.585188, 45.359759], [-122.584962, 45.35955], [-122.584696, 45.359395], [-122.584405, 45.359292], [-122.584102, 45.359234], [-122.583897, 45.359223], [-122.582765, 45.359247], [-122.582357, 45.359195], [-122.581957, 45.359097], [-122.581665, 45.358996], [-122.579062, 45.35776], [-122.57879, 45.357615], [-122.578537, 45.357437], [-122.578384, 45.3573], [-122.578124, 45.356982], [-122.578151, 45.355133], [-122.578126, 45.355035], [-122.577991, 45.354758], [-122.577939, 45.354669], [-122.577798, 45.35452], [-122.577636, 45.354392], [-122.577459, 45.354287], [-122.577176, 45.354166], [-122.576978, 45.354109], [-122.576571, 45.354049], [-122.575645, 45.354051], [-122.575242, 45.353967], [-122.57495, 45.353869], [-122.573533, 45.353031], [-122.573333, 45.352796], [-122.573173, 45.352533], [-122.573132, 45.352332], [-122.573147, 45.352127], [-122.573215, 45.351934], [-122.573267, 45.351845], [-122.573396, 45.351685], [-122.573553, 45.351552], [-122.573728, 45.351444], [-122.573928, 45.351416], [-122.574224, 45.351328], [-122.575547, 45.35113], [-122.575842, 45.35104], [-122.57612, 45.350907], [-122.576374, 45.350731], [-122.576521, 45.350587], [-122.576644, 45.350422], [-122.576737, 45.350239], [-122.576803, 45.349939], [-122.576768, 45.349633], [-122.576642, 45.349353], [-122.576517, 45.34919], [-122.57637, 45.349046], [-122.575124, 45.348133], [-122.57505, 45.348063], [-122.574936, 45.347892], [-122.574865, 45.347699], [-122.574848, 45.347598], [-122.574857, 45.347393], [-122.574921, 45.347198], [-122.575029, 45.347023], [-122.575171, 45.346874], [-122.575424, 45.346699], [-122.575707, 45.346577], [-122.576996, 45.346218], [-122.577184, 45.346133], [-122.577357, 45.346023], [-122.57758, 45.34581], [-122.577689, 45.345636], [-122.577755, 45.345442], [-122.577768, 45.34534], [-122.577752, 45.345135], [-122.577682, 45.344942], [-122.577354, 45.34442], [-122.577294, 45.344223], [-122.577284, 45.344021], [-122.577389, 45.343732], [-122.577387, 45.343629], [-122.577337, 45.343117], [-122.577224, 45.342615], [-122.577103, 45.342331], [-122.576949, 45.342064], [-122.576767, 45.341815], [-122.576627, 45.341664], [-122.576398, 45.341456], [-122.576156, 45.341266], [-122.575774, 45.341122], [-122.575507, 45.340967], [-122.575321, 45.340881], [-122.575027, 45.340786], [-122.573127, 45.340323], [-122.572834, 45.340224], [-122.572459, 45.340055], [-122.572107, 45.339842], [-122.571864, 45.339652], [-122.571715, 45.33951], [-122.571516, 45.339274], [-122.57131, 45.338918], [-122.570907, 45.337642], [-122.570872, 45.33744], [-122.570894, 45.337236], [-122.57102, 45.336956], [-122.571212, 45.336715], [-122.571371, 45.336586], [-122.572055, 45.336127], [-122.572202, 45.335983], [-122.572317, 45.335813], [-122.572424, 45.335524], [-122.57248, 45.335221], [-122.572485, 45.335016], [-122.57244, 45.334607], [-122.572381, 45.334307], [-122.572245, 45.334157], [-122.572159, 45.333972], [-122.571912, 45.333643], [-122.571699, 45.33342], [-122.571465, 45.333219], [-122.570273, 45.33241], [-122.569963, 45.332138], [-122.569695, 45.331827], [-122.569585, 45.331653], [-122.56932, 45.331096], [-122.569212, 45.330699], [-122.569177, 45.330289], [-122.569466, 45.327318], [-122.569485, 45.326804], [-122.569457, 45.326496], [-122.569378, 45.326093], [-122.569251, 45.325701], [-122.569128, 45.325418], [-122.568838, 45.324873], [-122.567392, 45.322499], [-122.566715, 45.321344], [-122.565087, 45.31872], [-122.56133, 45.31257], [-122.560562, 45.311351], [-122.559325, 45.309332], [-122.55899, 45.308737], [-122.558018, 45.30716], [-122.557817, 45.306925], [-122.557587, 45.30672], [-122.557242, 45.306496], [-122.556964, 45.306362], [-122.556674, 45.306256], [-122.556376, 45.306175], [-122.555265, 45.305959], [-122.554965, 45.305886], [-122.554477, 45.305723], [-122.554101, 45.305554], [-122.553831, 45.305404], [-122.553574, 45.305233], [-122.553338, 45.305035], [-122.553057, 45.304734], [-122.551245, 45.302362], [-122.54976, 45.300517], [-122.549321, 45.299946], [-122.548567, 45.298841], [-122.547949, 45.298017], [-122.546982, 45.296437], [-122.545767, 45.293046], [-122.54544, 45.29207], [-122.545272, 45.291694], [-122.545039, 45.291355], [-122.544755, 45.291058], [-122.5446, 45.290923], [-122.54369, 45.290248], [-122.54337, 45.289989], [-122.543075, 45.289702], [-122.542748, 45.289305], [-122.542472, 45.288871], [-122.542211, 45.288312], [-122.542033, 45.2873], [-122.54204, 45.286786], [-122.542124, 45.28607], [-122.542551, 45.281458], [-122.542624, 45.281054], [-122.542683, 45.280856], [-122.542732, 45.280768], [-122.549236, 45.272394], [-122.55531, 45.264729], [-122.558929, 45.261364], [-122.559202, 45.261221], [-122.55946, 45.261051], [-122.559691, 45.260847], [-122.559826, 45.260692], [-122.559941, 45.260521], [-122.560033, 45.260337], [-122.560097, 45.260142], [-122.560179, 45.259739], [-122.560298, 45.259454], [-122.560463, 45.259193], [-122.560728, 45.258882], [-122.560759, 45.258783], [-122.560764, 45.258586], [-122.561138, 45.258413], [-122.561945, 45.25825], [-122.563531, 45.257809], [-122.563899, 45.257624], [-122.564155, 45.257453], [-122.564389, 45.257251], [-122.564594, 45.257021], [-122.565436, 45.251425], [-122.565457, 45.251014], [-122.565533, 45.250715], [-122.565546, 45.250511], [-122.565593, 45.250311], [-122.565744, 45.250043], [-122.565963, 45.249826], [-122.566547, 45.249405], [-122.56724, 45.248959], [-122.567394, 45.248823], [-122.567577, 45.248576], [-122.567672, 45.248283], [-122.567668, 45.248078], [-122.567613, 45.24788], [-122.567515, 45.247699], [-122.567307, 45.247472], [-122.565791, 45.246237], [-122.563038, 45.244075], [-122.562338, 45.243467], [-122.561736, 45.242906], [-122.561262, 45.242363], [-122.560896, 45.241866], [-122.560721, 45.241612], [-122.560419, 45.241073], [-122.56035, 45.240998], [-122.559633, 45.239992], [-122.559536, 45.2397], [-122.559531, 45.239495], [-122.559614, 45.239199], [-122.559786, 45.238944], [-122.560015, 45.238738], [-122.560282, 45.238584], [-122.560473, 45.238507], [-122.560965, 45.238357], [-122.561334, 45.238175], [-122.56157, 45.237977], [-122.56169, 45.23781], [-122.561764, 45.237619], [-122.561779, 45.237517], [-122.561729, 45.237115], [-122.561695, 45.237022], [-122.561574, 45.236856], [-122.561341, 45.236655], [-122.561162, 45.236553], [-122.560972, 45.236474], [-122.560774, 45.236418], [-122.560572, 45.236382], [-122.560367, 45.236365], [-122.560161, 45.236368], [-122.559956, 45.236392], [-122.559755, 45.236436], [-122.559466, 45.236543], [-122.559203, 45.236704], [-122.558543, 45.237351], [-122.55838, 45.237477], [-122.558197, 45.23757], [-122.558004, 45.237642], [-122.557806, 45.237699], [-122.557503, 45.237757], [-122.557092, 45.237784], [-122.556784, 45.237768], [-122.55658, 45.237738], [-122.556181, 45.237637], [-122.555405, 45.237365], [-122.555101, 45.237307], [-122.554794, 45.237285], [-122.554485, 45.237297], [-122.554181, 45.237346], [-122.553883, 45.237429], [-122.553499, 45.237577], [-122.553398, 45.237595], [-122.553092, 45.237636], [-122.552784, 45.237657], [-122.552372, 45.237661], [-122.551961, 45.237633], [-122.551655, 45.237591], [-122.551556, 45.237565], [-122.551392, 45.237443], [-122.551252, 45.237293], [-122.5511, 45.237025], [-122.55107, 45.236926], [-122.551048, 45.236722], [-122.551077, 45.236519], [-122.551205, 45.23624], [-122.551331, 45.236077], [-122.551475, 45.23593], [-122.551636, 45.235801], [-122.551809, 45.235691], [-122.552085, 45.235552], [-122.552278, 45.235481], [-122.55327, 45.235205], [-122.553554, 45.235086], [-122.553817, 45.234925], [-122.554362, 45.234453], [-122.554623, 45.23429], [-122.554908, 45.23417], [-122.556177, 45.233746], [-122.557045, 45.233422], [-122.557891, 45.233044], [-122.558799, 45.232559], [-122.559722, 45.231904], [-122.561278, 45.230403], [-122.561521, 45.230215], [-122.564614, 45.229083], [-122.564914, 45.22901], [-122.56522, 45.228967], [-122.565528, 45.228955], [-122.565836, 45.228975], [-122.566241, 45.229048], [-122.56723, 45.229333], [-122.56753, 45.229406], [-122.567836, 45.229452], [-122.568143, 45.229476], [-122.568555, 45.229468], [-122.568656, 45.229478], [-122.568754, 45.229508], [-122.570294, 45.229395], [-122.570809, 45.229393], [-122.57122, 45.229421], [-122.571526, 45.229459], [-122.572536, 45.229656], [-122.572945, 45.229709], [-122.57613, 45.2299], [-122.576643, 45.229946], [-122.576951, 45.229946], [-122.577259, 45.229918], [-122.577973, 45.229824], [-122.578376, 45.22974], [-122.578672, 45.229654], [-122.57896, 45.229541], [-122.579236, 45.229403], [-122.579497, 45.229238], [-122.579659, 45.229112], [-122.580194, 45.228629], [-122.580364, 45.228513], [-122.580637, 45.22837], [-122.581503, 45.228039], [-122.581893, 45.22791], [-122.582461, 45.227678], [-122.582657, 45.227627], [-122.582741, 45.227569], [-122.583412, 45.227305], [-122.58387, 45.227071], [-122.585925, 45.225699], [-122.586148, 45.225486], [-122.586277, 45.225326], [-122.586432, 45.225059], [-122.586503, 45.224867], [-122.586548, 45.224667], [-122.586558, 45.222917], [-122.586555, 45.220241], [-122.586516, 45.219419], [-122.586949, 45.212432], [-122.587163, 45.206774], [-122.58715, 45.206687], [-122.587173, 45.20607], [-122.587148, 45.205762], [-122.587124, 45.205676], [-122.586578, 45.19911], [-122.586648, 45.198497], [-122.586741, 45.197991], [-122.586864, 45.197492], [-122.587618, 45.195356], [-122.591898, 45.186908], [-122.591969, 45.186837], [-122.592082, 45.186555], [-122.592227, 45.186062], [-122.592534, 45.184654], [-122.59368, 45.179743], [-122.593677, 45.179641], [-122.593649, 45.179437], [-122.593568, 45.17914], [-122.593343, 45.178678], [-122.590198, 45.17397], [-122.589907, 45.173426], [-122.589719, 45.172946], [-122.585232, 45.155818], [-122.583283, 45.14824], [-122.583267, 45.148139], [-122.583289, 45.148043], [-122.583395, 45.147867], [-122.583522, 45.147705], [-122.583742, 45.147489], [-122.58399, 45.147306], [-122.584259, 45.147153], [-122.584542, 45.14703], [-122.584835, 45.146934], [-122.585136, 45.146866], [-122.585442, 45.146823], [-122.597582, 45.146387], [-122.597684, 45.146384], [-122.5983, 45.146434], [-122.602313, 45.146312], [-122.60241, 45.1463], [-122.602495, 45.146268], [-122.603317, 45.14622], [-122.606918, 45.146094], [-122.60887, 45.145973], [-122.608973, 45.145974], [-122.609071, 45.145997], [-122.614591, 45.145343], [-122.619909, 45.144734], [-122.630357, 45.143683], [-122.640401, 45.142734], [-122.665262, 45.13995], [-122.665979, 45.139887], [-122.669767, 45.139482], [-122.669851, 45.139455], [-122.67108, 45.139324], [-122.677432, 45.138706], [-122.680093, 45.138416], [-122.680704, 45.138323], [-122.681309, 45.1382], [-122.681991, 45.137967], [-122.682274, 45.137845], [-122.696523, 45.130664], [-122.702022, 45.128084], [-122.722399, 45.117735], [-122.728204, 45.114843], [-122.728499, 45.114764], [-122.728776, 45.114627], [-122.742134, 45.107965], [-122.750099, 45.101288], [-122.754251, 45.097598], [-122.760686, 45.091518], [-122.767051, 45.085663], [-122.782133, 45.071347], [-122.787081, 45.066692], [-122.787422, 45.06646], [-122.787693, 45.066313], [-122.787976, 45.066187], [-122.788364, 45.066051], [-122.788662, 45.065971], [-122.789067, 45.065894], [-122.789886, 45.065812], [-122.790812, 45.065779], [-122.791532, 45.065782], [-122.792252, 45.06581], [-122.793484, 45.065905], [-122.794307, 45.065914], [-122.794821, 45.065947], [-122.798424, 45.065937]]}}
]}
